{"type": "FeatureCollection", "features": [{"type": "Feature", "properties": {"norad_id": 28054, "name": "DMSP 5D-3 F16 (USA 172)", "group": "weather", "lat": -33.78632485078038, "lon": -167.71548435913422, "alt_km": 848.2245678671634, "timestamp": "2025-12-26T19:22:38.536528+00:00", "meta": {"OBJECT_NAME": "DMSP 5D-3 F16 (USA 172)", "OBJECT_ID": "2003-048A", "EPOCH": "2025-12-26T13:44:48.692256", "MEAN_MOTION": 14.14429016, "ECCENTRICITY": 0.00062431, "INCLINATION": 99.0038, "RA_OF_ASC_NODE": 18.1379, "ARG_OF_PERICENTER": 276.4182, "MEAN_ANOMALY": 183.8785, "EPHEMERIS_TYPE": 0, "CLASSIFICATION_TYPE": "U", "NORAD_CAT_ID": 28054, "ELEMENT_SET_NO": 999, "REV_AT_EPOCH": 14508, "BSTAR": 8.8263469e-05, "MEAN_MOTION_DOT": 1.23e-06, "MEAN_MOTION_DDOT": 0}, "tle": {"line1": "1 28054U 03048A   25360.57278579  .00000123  00000+0  88263-4 0  9996", "line2": "2 28054  99.0038  18.1379 0006243 276.4182 183.8785 14.14429016145084"}}, "geometry": {"type": "Point", "coordinates": [-167.71548435913422, -33.78632485078038]}}, {"type": "Feature", "properties": {"norad_id": 28912, "name": "METEOSAT-9 (MSG-2)", "group": "weather", "lat": 2.4689304947614734, "lon": 71.63313993620132, "alt_km": 35804.607758896454, "timestamp": "2025-12-26T19:22:38.536576+00:00", "meta": {"OBJECT_NAME": "METEOSAT-9 (MSG-2)", "OBJECT_ID": "2005-049B", "EPOCH": "2025-12-24T18:27:10.310976", "MEAN_MOTION": 1.00268275, "ECCENTRICITY": 0.00719695, "INCLINATION": 8.9553, "RA_OF_ASC_NODE": 55.846, "ARG_OF_PERICENTER": 282.2974, "MEAN_ANOMALY": 77.0088, "EPHEMERIS_TYPE": 0, "CLASSIFICATION_TYPE": "U", "NORAD_CAT_ID": 28912, "ELEMENT_SET_NO": 999, "REV_AT_EPOCH": 524, "BSTAR": 0, "MEAN_MOTION_DOT": 1.45e-06, "MEAN_MOTION_DDOT": 0}, "tle": {"line1": "1 28912U 05049B   25358.76886934  .00000145  00000+0  00000+0 0  9992", "line2": "2 28912   8.9553  55.8460 0071969 282.2974  77.0088  1.00268275  5240"}}, "geometry": {"type": "Point", "coordinates": [71.63313993620132, 2.4689304947614734]}}, {"type": "Feature", "properties": {"norad_id": 29522, "name": "DMSP 5D-3 F17 (USA 191)", "group": "weather", "lat": 0.5159645429353732, "lon": -174.01713379107747, "alt_km": 838.1928153487879, "timestamp": "2025-12-26T19:22:38.536594+00:00", "meta": {"OBJECT_NAME": "DMSP 5D-3 F17 (USA 191)", "OBJECT_ID": "2006-050A", "EPOCH": "2025-12-26T13:26:26.992896", "MEAN_MOTION": 14.14925425, "ECCENTRICITY": 0.00100074, "INCLINATION": 98.7393, "RA_OF_ASC_NODE": 5.6613, "ARG_OF_PERICENTER": 183.8317, "MEAN_ANOMALY": 176.2782, "EPHEMERIS_TYPE": 0, "CLASSIFICATION_TYPE": "U", "NORAD_CAT_ID": 29522, "ELEMENT_SET_NO": 999, "REV_AT_EPOCH": 98800, "BSTAR": 0.00011417174, "MEAN_MOTION_DOT": 1.77e-06, "MEAN_MOTION_DDOT": 0}, "tle": {"line1": "1 29522U 06050A   25360.56003464  .00000177  00000+0  11417-3 0  9996", "line2": "2 29522  98.7393   5.6613 0010007 183.8317 176.2782 14.14925425988006"}}, "geometry": {"type": "Point", "coordinates": [-174.01713379107747, 0.5159645429353732]}}, {"type": "Feature", "properties": {"norad_id": 32958, "name": "FENGYUN 3A", "group": "weather", "lat": 53.42745372029284, "lon": 131.90912569723125, "alt_km": 826.0636197425802, "timestamp": "2025-12-26T19:22:38.536608+00:00", "meta": {"OBJECT_NAME": "FENGYUN 3A", "OBJECT_ID": "2008-026A", "EPOCH": "2025-12-26T13:42:43.248096", "MEAN_MOTION": 14.19518916, "ECCENTRICITY": 0.00076087, "INCLINATION": 98.6714, "RA_OF_ASC_NODE": 299.808, "ARG_OF_PERICENTER": 265.4232, "MEAN_ANOMALY": 94.6075, "EPHEMERIS_TYPE": 0, "CLASSIFICATION_TYPE": "U", "NORAD_CAT_ID": 32958, "ELEMENT_SET_NO": 999, "REV_AT_EPOCH": 91091, "BSTAR": 8.5187912e-05, "MEAN_MOTION_DOT": 1.36e-06, "MEAN_MOTION_DDOT": 0}, "tle": {"line1": "1 32958U 08026A   25360.57133389  .00000136  00000+0  85188-4 0  9991", "line2": "2 32958  98.6714 299.8080 0007608 265.4232  94.6075 14.19518916910911"}}, "geometry": {"type": "Point", "coordinates": [131.90912569723125, 53.42745372029284]}}, {"type": "Feature", "properties": {"norad_id": 35491, "name": "GOES 14", "group": "weather", "lat": -0.06851263915535198, "lon": -92.41668668084972, "alt_km": 35831.95621342375, "timestamp": "2025-12-26T19:22:38.536628+00:00", "meta": {"OBJECT_NAME": "GOES 14", "OBJECT_ID": "2009-033A", "EPOCH": "2025-12-26T12:10:38.040672", "MEAN_MOTION": 1.00097067, "ECCENTRICITY": 7.661e-05, "INCLINATION": 1.2376, "RA_OF_ASC_NODE": 85.2609, "ARG_OF_PERICENTER": 194.3443, "MEAN_ANOMALY": 239.8772, "EPHEMERIS_TYPE": 0, "CLASSIFICATION_TYPE": "U", "NORAD_CAT_ID": 35491, "ELEMENT_SET_NO": 999, "REV_AT_EPOCH": 486, "BSTAR": 0, "MEAN_MOTION_DOT": 4.3e-07, "MEAN_MOTION_DDOT": 0}, "tle": {"line1": "1 35491U 09033A   25360.50738473  .00000043  00000+0  00000+0 0  9995", "line2": "2 35491   1.2376  85.2609 0000766 194.3443 239.8772  1.00097067  4866"}}, "geometry": {"type": "Point", "coordinates": [-92.41668668084972, -0.06851263915535198]}}, {"type": "Feature", "properties": {"norad_id": 35951, "name": "DMSP 5D-3 F18 (USA 210)", "group": "weather", "lat": 38.79975441465436, "lon": -30.086360169432908, "alt_km": 831.9276363822682, "timestamp": "2025-12-26T19:22:38.536648+00:00", "meta": {"OBJECT_NAME": "DMSP 5D-3 F18 (USA 210)", "OBJECT_ID": "2009-057A", "EPOCH": "2025-12-26T14:06:01.404864", "MEAN_MOTION": 14.14778364, "ECCENTRICITY": 0.00116389, "INCLINATION": 98.8851, "RA_OF_ASC_NODE": 336.9201, "ARG_OF_PERICENTER": 26.0821, "MEAN_ANOMALY": 334.0936, "EPHEMERIS_TYPE": 0, "CLASSIFICATION_TYPE": "U", "NORAD_CAT_ID": 35951, "ELEMENT_SET_NO": 999, "REV_AT_EPOCH": 83518, "BSTAR": 0.0001759165, "MEAN_MOTION_DOT": 2.95e-06, "MEAN_MOTION_DDOT": 0}, "tle": {"line1": "1 35951U 09057A   25360.58751626  .00000295  00000+0  17592-3 0  9992", "line2": "2 35951  98.8851 336.9201 0011638  26.0821 334.0936 14.14778364835184"}}, "geometry": {"type": "Point", "coordinates": [-30.086360169432908, 38.79975441465436]}}, {"type": "Feature", "properties": {"norad_id": 36411, "name": "EWS-G2 (GOES 15)", "group": "weather", "lat": 0.04021301883945431, "lon": 87.54661646091873, "alt_km": 35810.07083429182, "timestamp": "2025-12-26T19:22:38.536663+00:00", "meta": {"OBJECT_NAME": "EWS-G2 (GOES 15)", "OBJECT_ID": "2010-008A", "EPOCH": "2025-12-26T01:20:32.726976", "MEAN_MOTION": 1.00270948, "ECCENTRICITY": 0.00056288, "INCLINATION": 0.8445, "RA_OF_ASC_NODE": 86.073, "ARG_OF_PERICENTER": 179.6686, "MEAN_ANOMALY": 270.5509, "EPHEMERIS_TYPE": 0, "CLASSIFICATION_TYPE": "U", "NORAD_CAT_ID": 36411, "ELEMENT_SET_NO": 999, "REV_AT_EPOCH": 5790, "BSTAR": 0, "MEAN_MOTION_DOT": 6e-07, "MEAN_MOTION_DDOT": 0}, "tle": {"line1": "1 36411U 10008A   25360.05593434  .00000060  00000+0  00000+0 0  9997", "line2": "2 36411   0.8445  86.0730 0005628 179.6686 270.5509  1.00270948 57906"}}, "geometry": {"type": "Point", "coordinates": [87.54661646091873, 0.04021301883945431]}}, {"type": "Feature", "properties": {"norad_id": 36744, "name": "COMS 1", "group": "weather", "lat": 4.264503585161824, "lon": 154.3213779850023, "alt_km": 35788.94671053019, "timestamp": "2025-12-26T19:22:38.536677+00:00", "meta": {"OBJECT_NAME": "COMS 1", "OBJECT_ID": "2010-032A", "EPOCH": "2025-12-25T12:42:15.782976", "MEAN_MOTION": 1.00270082, "ECCENTRICITY": 8.877e-05, "INCLINATION": 4.3689, "RA_OF_ASC_NODE": 77.8525, "ARG_OF_PERICENTER": 213.8569, "MEAN_ANOMALY": 121.3153, "EPHEMERIS_TYPE": 0, "CLASSIFICATION_TYPE": "U", "NORAD_CAT_ID": 36744, "ELEMENT_SET_NO": 999, "REV_AT_EPOCH": 4934, "BSTAR": 0, "MEAN_MOTION_DOT": -3.24e-06, "MEAN_MOTION_DDOT": 0}, "tle": {"line1": "1 36744U 10032A   25359.52934934 -.00000324  00000+0  00000+0 0  9991", "line2": "2 36744   4.3689  77.8525 0000887 213.8569 121.3153  1.00270082 49343"}}, "geometry": {"type": "Point", "coordinates": [154.3213779850023, 4.264503585161824]}}, {"type": "Feature", "properties": {"norad_id": 37214, "name": "FENGYUN 3B", "group": "weather", "lat": 5.012679897457986, "lon": 40.085974161421866, "alt_km": 834.7998533525397, "timestamp": "2025-12-26T19:22:38.536690+00:00", "meta": {"OBJECT_NAME": "FENGYUN 3B", "OBJECT_ID": "2010-059A", "EPOCH": "2025-12-26T15:03:57.117024", "MEAN_MOTION": 14.14795363, "ECCENTRICITY": 0.00214764, "INCLINATION": 98.9886, "RA_OF_ASC_NODE": 40.7006, "ARG_OF_PERICENTER": 317.8587, "MEAN_ANOMALY": 212.6742, "EPHEMERIS_TYPE": 0, "CLASSIFICATION_TYPE": "U", "NORAD_CAT_ID": 37214, "ELEMENT_SET_NO": 999, "REV_AT_EPOCH": 78302, "BSTAR": 0.00027208242, "MEAN_MOTION_DOT": 4.8e-06, "MEAN_MOTION_DDOT": 0}, "tle": {"line1": "1 37214U 10059A   25360.62774441  .00000480  00000+0  27208-3 0  9996", "line2": "2 37214  98.9886  40.7006 0021476 317.8587 212.6742 14.14795363783020"}}, "geometry": {"type": "Point", "coordinates": [40.085974161421866, 5.012679897457986]}}, {"type": "Feature", "properties": {"norad_id": 37849, "name": "SUOMI NPP", "group": "weather", "lat": 79.63739841940661, "lon": -119.6547018912788, "alt_km": 817.8015381326104, "timestamp": "2025-12-26T19:22:38.536702+00:00", "meta": {"OBJECT_NAME": "SUOMI NPP", "OBJECT_ID": "2011-061A", "EPOCH": "2025-12-22T15:10:21.732672", "MEAN_MOTION": 14.19516903, "ECCENTRICITY": 0.00024883, "INCLINATION": 98.7787, "RA_OF_ASC_NODE": 293.8852, "ARG_OF_PERICENTER": 103.0781, "MEAN_ANOMALY": 257.0673, "EPHEMERIS_TYPE": 0, "CLASSIFICATION_TYPE": "U", "NORAD_CAT_ID": 37849, "ELEMENT_SET_NO": 999, "REV_AT_EPOCH": 73339, "BSTAR": 6.3406935e-05, "MEAN_MOTION_DOT": 8.9e-07, "MEAN_MOTION_DDOT": 0}, "tle": {"line1": "1 37849U 11061A   25356.63219598  .00000089  00000+0  63407-4 0  9994", "line2": "2 37849  98.7787 293.8852 0002488 103.0781 257.0673 14.19516903733392"}}, "geometry": {"type": "Point", "coordinates": [-119.6547018912788, 79.63739841940661]}}]}